[{"OBJECT_NAME":"TIANPING 2C","OBJECT_ID":"2022-032D","EPOCH":"2026-03-09T22:24:23.522112","MEAN_MOTION":15.10225163,"ECCENTRICITY":0.00079422,"INCLINATION":97.5961,"RA_OF_ASC_NODE":122.1196,"ARG_OF_PERICENTER":128.8925,"MEAN_ANOMALY":231.3013,"EPHEMERIS_TYPE":0,"CLASSIFICATION_TYPE":"U","NORAD_CAT_ID":52156,"ELEMENT_SET_NO":999,"REV_AT_EPOCH":21586,"BSTAR":0.00036090623,"MEAN_MOTION_DOT":5.841e-5,"MEAN_MOTION_DDOT":0},{"OBJECT_NAME":"STARLINK-4145","OBJECT_ID":"2022-083F","EPOCH":"2026-03-09T14:30:50.222880","MEAN_MOTION":15.08839686,"ECCENTRICITY":0.0001334,"INCLINATION":53.218,"RA_OF_ASC_NODE":174.5037,"ARG_OF_PERICENTER":92.5029,"MEAN_ANOMALY":267.6116,"EPHEMERIS_TYPE":0,"CLASSIFICATION_TYPE":"U","NORAD_CAT_ID":53137,"ELEMENT_SET_NO":999,"REV_AT_EPOCH":20120,"BSTAR":-6.0578e-6,"MEAN_MOTION_DOT":-3.84e-6,"MEAN_MOTION_DDOT":0}]
